start=new Date('2023-01-28T00:00:00.000Z').valueOf();
sats=[{"CLASSIFICATION_TYPE":"U","RCS_SIZE":"LARGE","MEAN_MOTION_DOT":"0.00000665","GP_ID":"223838128","MEAN_MOTION_DDOT":"0.0000000000000","ECCENTRICITY":"0.00015390","ARG_OF_PERICENTER":"85.9322","EPOCH":"2023-01-27T18:27:37.157184","CENTER_NAME":"EARTH","ELEMENT_SET_NO":"999","PERIOD":"95.438","TLE_LINE1":"1 52534U 22051B   23027.76918006  .00000665  00000-0  59863-4 0  9992","OBJECT_ID":"2022-051B","MEAN_ELEMENT_THEORY":"SGP4","TIME_SYSTEM":"UTC","OBJECT_TYPE":"PAYLOAD","MEAN_ANOMALY":"274.1846","NORAD_CAT_ID":"52534","DECAY_DATE":null,"FILE":"3763218","RA_OF_ASC_NODE":"192.9558","TLE_LINE2":"2 52534  53.2155 192.9558 0001539  85.9322 274.1846 15.08836678 40545","SITE":"AFWTR","APOAPSIS":"540.820","REV_AT_EPOCH":"4054","LAUNCH_DATE":"2022-05-13","INCLINATION":"53.2155","MEAN_MOTION":"15.08836678","COUNTRY_CODE":"US","REF_FRAME":"TEME","BSTAR":"0.00005986300000","EPHEMERIS_TYPE":"0","PERIAPSIS":"538.691","SEMIMAJOR_AXIS":"6917.891","OBJECT_NAME":"STARLINK-3952"},{"PERIAPSIS":"538.977","OBJECT_NAME":"STARLINK-3958","SEMIMAJOR_AXIS":"6917.901","COUNTRY_CODE":"US","BSTAR":"0.00003730900000","REF_FRAME":"TEME","EPHEMERIS_TYPE":"0","APOAPSIS":"540.554","REV_AT_EPOCH":"3980","LAUNCH_DATE":"2022-05-13","INCLINATION":"53.2147","MEAN_MOTION":"15.08833381","DECAY_DATE":null,"FILE":"3763218","TLE_LINE2":"2 52535  53.2147 192.9737 0001140  89.6409 270.4714 15.08833381 39809","SITE":"AFWTR","RA_OF_ASC_NODE":"192.9737","OBJECT_ID":"2022-051C","MEAN_ELEMENT_THEORY":"SGP4","TIME_SYSTEM":"UTC","MEAN_ANOMALY":"270.4714","OBJECT_TYPE":"PAYLOAD","NORAD_CAT_ID":"52535","ARG_OF_PERICENTER":"89.6409","ECCENTRICITY":"0.00011400","MEAN_MOTION_DDOT":"0.0000000000000","EPOCH":"2023-01-27T18:22:19.413408","CENTER_NAME":"EARTH","TLE_LINE1":"1 52535U 22051C   23027.76550247  .00000306  00000-0  37309-4 0  9995","PERIOD":"95.438","ELEMENT_SET_NO":"999","RCS_SIZE":"LARGE","MEAN_MOTION_DOT":"0.00000306","GP_ID":"223838879","CLASSIFICATION_TYPE":"U"},{"OBJECT_NAME":"STARLINK-3964","SEMIMAJOR_AXIS":"6917.852","PERIAPSIS":"538.598","EPHEMERIS_TYPE":"0","BSTAR":"0.00026165000000","REF_FRAME":"TEME","COUNTRY_CODE":"US","MEAN_MOTION":"15.08849264","INCLINATION":"53.2146","LAUNCH_DATE":"2022-05-13","APOAPSIS":"540.836","REV_AT_EPOCH":"3980","TLE_LINE2":"2 52536  53.2146 192.9951 0001617  76.0067 284.1105 15.08849264 39809","SITE":"AFWTR","RA_OF_ASC_NODE":"192.9951","FILE":"3763218","DECAY_DATE":null,"NORAD_CAT_ID":"52536","MEAN_ANOMALY":"284.1105","OBJECT_TYPE":"PAYLOAD","TIME_SYSTEM":"UTC","MEAN_ELEMENT_THEORY":"SGP4","OBJECT_ID":"2022-051D","TLE_LINE1":"1 52536U 22051D   23027.76182132  .00003880  00000-0  26165-3 0  9997","PERIOD":"95.437","ELEMENT_SET_NO":"999","CENTER_NAME":"EARTH","EPOCH":"2023-01-27T18:17:01.362048","ARG_OF_PERICENTER":"76.0067","ECCENTRICITY":"0.00016170","MEAN_MOTION_DDOT":"0.0000000000000","GP_ID":"223839630","MEAN_MOTION_DOT":"0.00003880","RCS_SIZE":"LARGE","CLASSIFICATION_TYPE":"U"},{"COUNTRY_CODE":"US","REF_FRAME":"TEME","BSTAR":"0.00002240100000","EPHEMERIS_TYPE":"0","PERIAPSIS":"538.750","SEMIMAJOR_AXIS":"6917.903","OBJECT_NAME":"STARLINK-3897","DECAY_DATE":null,"FILE":"3763218","RA_OF_ASC_NODE":"193.3115","TLE_LINE2":"2 52537  53.2154 193.3115 0001472 102.3974 257.7183 15.08832519 39790","SITE":"AFWTR","APOAPSIS":"540.787","REV_AT_EPOCH":"3979","LAUNCH_DATE":"2022-05-13","MEAN_MOTION":"15.08832519","INCLINATION":"53.2154","MEAN_MOTION_DDOT":"0.0000000000000","ECCENTRICITY":"0.00014720","ARG_OF_PERICENTER":"102.3974","EPOCH":"2023-01-27T16:36:20.220480","CENTER_NAME":"EARTH","PERIOD":"95.438","ELEMENT_SET_NO":"999","TLE_LINE1":"1 52537U 22051E   23027.69190070  .00000069  00000-0  22401-4 0  9996","OBJECT_ID":"2022-051E","MEAN_ELEMENT_THEORY":"SGP4","TIME_SYSTEM":"UTC","OBJECT_TYPE":"PAYLOAD","MEAN_ANOMALY":"257.7183","NORAD_CAT_ID":"52537","CLASSIFICATION_TYPE":"U","RCS_SIZE":"LARGE","MEAN_MOTION_DOT":"0.00000069","GP_ID":"223838378"},{"EPOCH":"2023-01-27T16:25:43.788576","ECCENTRICITY":"0.00010760","ARG_OF_PERICENTER":"93.2030","MEAN_MOTION_DDOT":"0.0000000000000","TLE_LINE1":"1 52538U 22051F   23027.68453459  .00001242  00000-0  96092-4 0  9990","ELEMENT_SET_NO":"999","PERIOD":"95.438","CENTER_NAME":"EARTH","TIME_SYSTEM":"UTC","MEAN_ELEMENT_THEORY":"SGP4","OBJECT_ID":"2022-051F","NORAD_CAT_ID":"52538","MEAN_ANOMALY":"266.9085","OBJECT_TYPE":"PAYLOAD","CLASSIFICATION_TYPE":"U","MEAN_MOTION_DOT":"0.00001242","RCS_SIZE":"LARGE","GP_ID":"223838628","COUNTRY_CODE":"US","EPHEMERIS_TYPE":"0","BSTAR":"0.00009609200000","REF_FRAME":"TEME","OBJECT_NAME":"STARLINK-3933","SEMIMAJOR_AXIS":"6917.891","PERIAPSIS":"539.011","FILE":"3763218","DECAY_DATE":null,"TLE_LINE2":"2 52538  53.2143 193.3387 0001076  93.2030 266.9085 15.08836692 39790","SITE":"AFWTR","RA_OF_ASC_NODE":"193.3387","APOAPSIS":"540.500","REV_AT_EPOCH":"3979","MEAN_MOTION":"15.08836692","INCLINATION":"53.2143","LAUNCH_DATE":"2022-05-13"},{"APOAPSIS":"540.461","REV_AT_EPOCH":"3980","MEAN_MOTION":"15.08886858","INCLINATION":"53.2162","LAUNCH_DATE":"2022-05-13","FILE":"3763218","DECAY_DATE":null,"SITE":"AFWTR","TLE_LINE2":"2 52539  53.2162 193.0222 0001241 116.2895 243.8225 15.08886858 39807","RA_OF_ASC_NODE":"193.0222","OBJECT_NAME":"STARLINK-3757","SEMIMAJOR_AXIS":"6917.737","PERIAPSIS":"538.744","COUNTRY_CODE":"US","EPHEMERIS_TYPE":"0","BSTAR":"0.00041519000000","REF_FRAME":"TEME","MEAN_MOTION_DOT":"0.00006334","RCS_SIZE":"LARGE","GP_ID":"223839380","CLASSIFICATION_TYPE":"U","MEAN_ELEMENT_THEORY":"SGP4","TIME_SYSTEM":"UTC","OBJECT_ID":"2022-051G","NORAD_CAT_ID":"52539","MEAN_ANOMALY":"243.8225","OBJECT_TYPE":"PAYLOAD","EPOCH":"2023-01-27T18:06:21.100896","ECCENTRICITY":"0.00012410","ARG_OF_PERICENTER":"116.2895","MEAN_MOTION_DDOT":"0.0000000000000","TLE_LINE1":"1 52539U 22051G   23027.75441089  .00006334  00000-0  41519-3 0  9995","PERIOD":"95.435","ELEMENT_SET_NO":"999","CENTER_NAME":"EARTH"},{"CLASSIFICATION_TYPE":"U","GP_ID":"223839130","MEAN_MOTION_DOT":"-0.00000035","RCS_SIZE":"LARGE","PERIOD":"95.438","ELEMENT_SET_NO":"999","TLE_LINE1":"1 52540U 22051H   23027.73973712 -.00000035  00000-0  15870-4 0  9993","CENTER_NAME":"EARTH","EPOCH":"2023-01-27T17:45:13.287168","MEAN_MOTION_DDOT":"0.0000000000000","ECCENTRICITY":"0.00014670","ARG_OF_PERICENTER":"91.0861","NORAD_CAT_ID":"52540","OBJECT_TYPE":"PAYLOAD","MEAN_ANOMALY":"269.0299","MEAN_ELEMENT_THEORY":"SGP4","TIME_SYSTEM":"UTC","OBJECT_ID":"2022-051H","RA_OF_ASC_NODE":"193.0884","TLE_LINE2":"2 52540  53.2156 193.0884 0001467  91.0861 269.0299 15.08835782 39800","SITE":"AFWTR","FILE":"3763218","DECAY_DATE":null,"MEAN_MOTION":"15.08835782","INCLINATION":"53.2156","LAUNCH_DATE":"2022-05-13","REV_AT_EPOCH":"3980","APOAPSIS":"540.773","EPHEMERIS_TYPE":"0","REF_FRAME":"TEME","BSTAR":"0.00001587000000","COUNTRY_CODE":"US","SEMIMAJOR_AXIS":"6917.893","OBJECT_NAME":"STARLINK-3940","PERIAPSIS":"538.743"},{"DECAY_DATE":null,"FILE":"3763218","RA_OF_ASC_NODE":"197.9288","SITE":"AFWTR","TLE_LINE2":"2 52541  53.2180 197.9288 0001182  93.1940 266.9188 15.08836606 39735","APOAPSIS":"540.573","REV_AT_EPOCH":"3973","LAUNCH_DATE":"2022-05-13","MEAN_MOTION":"15.08836606","INCLINATION":"53.2180","COUNTRY_CODE":"US","REF_FRAME":"TEME","BSTAR":"0.00001260900000","EPHEMERIS_TYPE":"0","PERIAPSIS":"538.938","SEMIMAJOR_AXIS":"6917.891","OBJECT_NAME":"STARLINK-3845","CLASSIFICATION_TYPE":"U","RCS_SIZE":"LARGE","MEAN_MOTION_DOT":"-0.00000087","GP_ID":"223837879","MEAN_MOTION_DDOT":"0.0000000000000","ECCENTRICITY":"0.00011820","ARG_OF_PERICENTER":"93.1940","EPOCH":"2023-01-27T18:34:54.095808","CENTER_NAME":"EARTH","PERIOD":"95.438","ELEMENT_SET_NO":"999","TLE_LINE1":"1 52541U 22051J   23027.77423722 -.00000087  00000-0  12609-4 0  9993","OBJECT_ID":"2022-051J","TIME_SYSTEM":"UTC","MEAN_ELEMENT_THEORY":"SGP4","OBJECT_TYPE":"PAYLOAD","MEAN_ANOMALY":"266.9188","NORAD_CAT_ID":"52541"},{"REV_AT_EPOCH":"3979","APOAPSIS":"540.888","MEAN_MOTION":"15.08836887","INCLINATION":"53.2150","LAUNCH_DATE":"2022-05-13","FILE":"3763218","DECAY_DATE":null,"TLE_LINE2":"2 52542  53.2150 193.4104 0001638  81.8428 278.2750 15.08836887 39790","SITE":"AFWTR","RA_OF_ASC_NODE":"193.4104","OBJECT_NAME":"STARLINK-3937","SEMIMAJOR_AXIS":"6917.890","PERIAPSIS":"538.622","COUNTRY_CODE":"US","EPHEMERIS_TYPE":"0","BSTAR":"0.00002583000000","REF_FRAME":"TEME","MEAN_MOTION_DOT":"0.00000123","RCS_SIZE":"LARGE","GP_ID":"223838129","CLASSIFICATION_TYPE":"U","TIME_SYSTEM":"UTC","MEAN_ELEMENT_THEORY":"SGP4","OBJECT_ID":"2022-051K","NORAD_CAT_ID":"52542","MEAN_ANOMALY":"278.2750","OBJECT_TYPE":"PAYLOAD","EPOCH":"2023-01-27T16:04:32.184480","ARG_OF_PERICENTER":"81.8428","ECCENTRICITY":"0.00016380","MEAN_MOTION_DDOT":"0.0000000000000","TLE_LINE1":"1 52542U 22051K   23027.66981695  .00000123  00000-0  25830-4 0  9990","PERIOD":"95.438","ELEMENT_SET_NO":"999","CENTER_NAME":"EARTH"},{"SITE":"AFWTR","TLE_LINE2":"2 52543  53.2158 193.0526 0001037  95.7766 264.3344 15.08838527 39805","RA_OF_ASC_NODE":"193.0526","FILE":"3763218","DECAY_DATE":null,"INCLINATION":"53.2158","MEAN_MOTION":"15.08838527","LAUNCH_DATE":"2022-05-13","REV_AT_EPOCH":"3980","APOAPSIS":"540.467","EPHEMERIS_TYPE":"0","BSTAR":"0.00002588600000","REF_FRAME":"TEME","COUNTRY_CODE":"US","OBJECT_NAME":"STARLINK-3926","SEMIMAJOR_AXIS":"6917.885","PERIAPSIS":"539.033","CLASSIFICATION_TYPE":"U","GP_ID":"223838880","MEAN_MOTION_DOT":"0.00000124","RCS_SIZE":"LARGE","TLE_LINE1":"1 52543U 22051L   23027.74709663  .00000124  00000-0  25886-4 0  9995","ELEMENT_SET_NO":"999","PERIOD":"95.438","CENTER_NAME":"EARTH","EPOCH":"2023-01-27T17:55:49.148832","ECCENTRICITY":"0.00010370","ARG_OF_PERICENTER":"95.7766","MEAN_MOTION_DDOT":"0.0000000000000","NORAD_CAT_ID":"52543","MEAN_ANOMALY":"264.3344","OBJECT_TYPE":"PAYLOAD","TIME_SYSTEM":"UTC","MEAN_ELEMENT_THEORY":"SGP4","OBJECT_ID":"2022-051L"}];
